ORBCOMM FM103           
1 40091U 14040F   24259.40719484  .00003121  00000+0  72339-3 0  9995
2 40091  47.0032 234.5456 0001167  87.8514 272.2505 14.57062637541070
ORBCOMM FM114           
1 41179U 15081A   24258.95618777  .00003921  00000+0  90014-3 0  9999
2 41179  47.0015 145.8699 0002266 175.9182 184.1722 14.57010440464311
ORBCOMM FM119           
1 41180U 15081B   24259.48103167  .00003061  00000+0  71035-3 0  9999
2 41180  46.9998  52.6275 0002142 239.9130 120.1543 14.57043191465640
ORBCOMM FM105           
1 41181U 15081C   24259.50780475  .00001785  00000+0  55582-3 0  9996
2 41181  47.0028  31.2152 0001967 192.6058 167.4773 14.44640955461138
ORBCOMM FM110           
1 41182U 15081D   24259.13813894  .00003709  00000+0  85157-3 0  9997
2 41182  47.0004 144.3985 0001663 321.9792  38.0976 14.57118783464390
ORBCOMM FM118           
1 41183U 15081E   24258.91042954  .00003689  00000+0  84921-3 0  9999
2 41183  47.0030 145.8119 0001924 310.7731  49.2987 14.57008746464285
ORBCOMM FM112           
1 41184U 15081F   24258.84099864  .00003384  00000+0  78213-3 0  9993
2 41184  46.9982  54.8417 0002366 222.3760 137.6943 14.56997233465496
ORBCOMM FM113           
1 41185U 15081G   24259.50387265  .00003746  00000+0  86135-3 0  9997
2 41185  47.0006  52.0032 0002256 238.7347 121.3317 14.57025755465643
