<?xml version="1.0" encoding="UTF-8"?>
<ndm xmlns:xsi="http://www.w3.org/2001/XMLSchema-instance" xsi:noNamespaceSchemaLocation="https://sanaregistry.org/r/ndmxml_unqualified/ndmxml-2.0.0-master-2.0.xsd">
<omm id="CCSDS_OMM_VERS" version="2.0">
<header><CREATION_DATE/><ORIGINATOR/></header><body><segment><metadata><OBJECT_NAME>ORBCOMM FM103</OBJECT_NAME><OBJECT_ID>2014-040F</OBJECT_ID><CENTER_NAME>EARTH</CENTER_NAME><REF_FRAME>TEME</REF_FRAME><TIME_SYSTEM>UTC</TIME_SYSTEM><MEAN_ELEMENT_THEORY>SGP4</MEAN_ELEMENT_THEORY></metadata><data><meanElements><EPOCH>2024-09-15T09:46:21.634176</EPOCH><MEAN_MOTION>14.57062637</MEAN_MOTION><ECCENTRICITY>.0001167</ECCENTRICITY><INCLINATION>47.0032</INCLINATION><RA_OF_ASC_NODE>234.5456</RA_OF_ASC_NODE><ARG_OF_PERICENTER>87.8514</ARG_OF_PERICENTER><MEAN_ANOMALY>272.2505</MEAN_ANOMALY></meanElements><tleParameters><EPHEMERIS_TYPE>0</EPHEMERIS_TYPE><CLASSIFICATION_TYPE>U</CLASSIFICATION_TYPE><NORAD_CAT_ID>40091</NORAD_CAT_ID><ELEMENT_SET_NO>999</ELEMENT_SET_NO><REV_AT_EPOCH>54107</REV_AT_EPOCH><BSTAR>.72339E-3</BSTAR><MEAN_MOTION_DOT>.3121E-4</MEAN_MOTION_DOT><MEAN_MOTION_DDOT>0</MEAN_MOTION_DDOT></tleParameters></data></segment></body></omm>
<omm id="CCSDS_OMM_VERS" version="2.0">
<header><CREATION_DATE/><ORIGINATOR/></header><body><segment><metadata><OBJECT_NAME>ORBCOMM FM114</OBJECT_NAME><OBJECT_ID>2015-081A</OBJECT_ID><CENTER_NAME>EARTH</CENTER_NAME><REF_FRAME>TEME</REF_FRAME><TIME_SYSTEM>UTC</TIME_SYSTEM><MEAN_ELEMENT_THEORY>SGP4</MEAN_ELEMENT_THEORY></metadata><data><meanElements><EPOCH>2024-09-14T22:56:54.623328</EPOCH><MEAN_MOTION>14.57010440</MEAN_MOTION><ECCENTRICITY>.0002266</ECCENTRICITY><INCLINATION>47.0015</INCLINATION><RA_OF_ASC_NODE>145.8699</RA_OF_ASC_NODE><ARG_OF_PERICENTER>175.9182</ARG_OF_PERICENTER><MEAN_ANOMALY>184.1722</MEAN_ANOMALY></meanElements><tleParameters><EPHEMERIS_TYPE>0</EPHEMERIS_TYPE><CLASSIFICATION_TYPE>U</CLASSIFICATION_TYPE><NORAD_CAT_ID>41179</NORAD_CAT_ID><ELEMENT_SET_NO>999</ELEMENT_SET_NO><REV_AT_EPOCH>46431</REV_AT_EPOCH><BSTAR>.90014E-3</BSTAR><MEAN_MOTION_DOT>.3921E-4</MEAN_MOTION_DOT><MEAN_MOTION_DDOT>0</MEAN_MOTION_DDOT></tleParameters></data></segment></body></omm>
<omm id="CCSDS_OMM_VERS" version="2.0">
<header><CREATION_DATE/><ORIGINATOR/></header><body><segment><metadata><OBJECT_NAME>ORBCOMM FM119</OBJECT_NAME><OBJECT_ID>2015-081B</OBJECT_ID><CENTER_NAME>EARTH</CENTER_NAME><REF_FRAME>TEME</REF_FRAME><TIME_SYSTEM>UTC</TIME_SYSTEM><MEAN_ELEMENT_THEORY>SGP4</MEAN_ELEMENT_THEORY></metadata><data><meanElements><EPOCH>2024-09-15T11:32:41.136288</EPOCH><MEAN_MOTION>14.57043191</MEAN_MOTION><ECCENTRICITY>.0002142</ECCENTRICITY><INCLINATION>46.9998</INCLINATION><RA_OF_ASC_NODE>52.6275</RA_OF_ASC_NODE><ARG_OF_PERICENTER>239.9130</ARG_OF_PERICENTER><MEAN_ANOMALY>120.1543</MEAN_ANOMALY></meanElements><tleParameters><EPHEMERIS_TYPE>0</EPHEMERIS_TYPE><CLASSIFICATION_TYPE>U</CLASSIFICATION_TYPE><NORAD_CAT_ID>41180</NORAD_CAT_ID><ELEMENT_SET_NO>999</ELEMENT_SET_NO><REV_AT_EPOCH>46564</REV_AT_EPOCH><BSTAR>.71035E-3</BSTAR><MEAN_MOTION_DOT>.3061E-4</MEAN_MOTION_DOT><MEAN_MOTION_DDOT>0</MEAN_MOTION_DDOT></tleParameters></data></segment></body></omm>
<omm id="CCSDS_OMM_VERS" version="2.0">
<header><CREATION_DATE/><ORIGINATOR/></header><body><segment><metadata><OBJECT_NAME>ORBCOMM FM105</OBJECT_NAME><OBJECT_ID>2015-081C</OBJECT_ID><CENTER_NAME>EARTH</CENTER_NAME><REF_FRAME>TEME</REF_FRAME><TIME_SYSTEM>UTC</TIME_SYSTEM><MEAN_ELEMENT_THEORY>SGP4</MEAN_ELEMENT_THEORY></metadata><data><meanElements><EPOCH>2024-09-15T12:11:14.330400</EPOCH><MEAN_MOTION>14.44640955</MEAN_MOTION><ECCENTRICITY>.0001967</ECCENTRICITY><INCLINATION>47.0028</INCLINATION><RA_OF_ASC_NODE>31.2152</RA_OF_ASC_NODE><ARG_OF_PERICENTER>192.6058</ARG_OF_PERICENTER><MEAN_ANOMALY>167.4773</MEAN_ANOMALY></meanElements><tleParameters><EPHEMERIS_TYPE>0</EPHEMERIS_TYPE><CLASSIFICATION_TYPE>U</CLASSIFICATION_TYPE><NORAD_CAT_ID>41181</NORAD_CAT_ID><ELEMENT_SET_NO>999</ELEMENT_SET_NO><REV_AT_EPOCH>46113</REV_AT_EPOCH><BSTAR>.55582E-3</BSTAR><MEAN_MOTION_DOT>.1785E-4</MEAN_MOTION_DOT><MEAN_MOTION_DDOT>0</MEAN_MOTION_DDOT></tleParameters></data></segment></body></omm>
<omm id="CCSDS_OMM_VERS" version="2.0">
<header><CREATION_DATE/><ORIGINATOR/></header><body><segment><metadata><OBJECT_NAME>ORBCOMM FM110</OBJECT_NAME><OBJECT_ID>2015-081D</OBJECT_ID><CENTER_NAME>EARTH</CENTER_NAME><REF_FRAME>TEME</REF_FRAME><TIME_SYSTEM>UTC</TIME_SYSTEM><MEAN_ELEMENT_THEORY>SGP4</MEAN_ELEMENT_THEORY></metadata><data><meanElements><EPOCH>2024-09-15T03:18:55.204416</EPOCH><MEAN_MOTION>14.57118783</MEAN_MOTION><ECCENTRICITY>.0001663</ECCENTRICITY><INCLINATION>47.0004</INCLINATION><RA_OF_ASC_NODE>144.3985</RA_OF_ASC_NODE><ARG_OF_PERICENTER>321.9792</ARG_OF_PERICENTER><MEAN_ANOMALY>38.0976</MEAN_ANOMALY></meanElements><tleParameters><EPHEMERIS_TYPE>0</EPHEMERIS_TYPE><CLASSIFICATION_TYPE>U</CLASSIFICATION_TYPE><NORAD_CAT_ID>41182</NORAD_CAT_ID><ELEMENT_SET_NO>999</ELEMENT_SET_NO><REV_AT_EPOCH>46439</REV_AT_EPOCH><BSTAR>.85157E-3</BSTAR><MEAN_MOTION_DOT>.3709E-4</MEAN_MOTION_DOT><MEAN_MOTION_DDOT>0</MEAN_MOTION_DDOT></tleParameters></data></segment></body></omm>
<omm id="CCSDS_OMM_VERS" version="2.0">
<header><CREATION_DATE/><ORIGINATOR/></header><body><segment><metadata><OBJECT_NAME>ORBCOMM FM118</OBJECT_NAME><OBJECT_ID>2015-081E</OBJECT_ID><CENTER_NAME>EARTH</CENTER_NAME><REF_FRAME>TEME</REF_FRAME><TIME_SYSTEM>UTC</TIME_SYSTEM><MEAN_ELEMENT_THEORY>SGP4</MEAN_ELEMENT_THEORY></metadata><data><meanElements><EPOCH>2024-09-14T21:51:01.112256</EPOCH><MEAN_MOTION>14.57008746</MEAN_MOTION><ECCENTRICITY>.0001924</ECCENTRICITY><INCLINATION>47.0030</INCLINATION><RA_OF_ASC_NODE>145.8119</RA_OF_ASC_NODE><ARG_OF_PERICENTER>310.7731</ARG_OF_PERICENTER><MEAN_ANOMALY>49.2987</MEAN_ANOMALY></meanElements><tleParameters><EPHEMERIS_TYPE>0</EPHEMERIS_TYPE><CLASSIFICATION_TYPE>U</CLASSIFICATION_TYPE><NORAD_CAT_ID>41183</NORAD_CAT_ID><ELEMENT_SET_NO>999</ELEMENT_SET_NO><REV_AT_EPOCH>46428</REV_AT_EPOCH><BSTAR>.84921E-3</BSTAR><MEAN_MOTION_DOT>.3689E-4</MEAN_MOTION_DOT><MEAN_MOTION_DDOT>0</MEAN_MOTION_DDOT></tleParameters></data></segment></body></omm>
<omm id="CCSDS_OMM_VERS" version="2.0">
<header><CREATION_DATE/><ORIGINATOR/></header><body><segment><metadata><OBJECT_NAME>ORBCOMM FM112</OBJECT_NAME><OBJECT_ID>2015-081F</OBJECT_ID><CENTER_NAME>EARTH</CENTER_NAME><REF_FRAME>TEME</REF_FRAME><TIME_SYSTEM>UTC</TIME_SYSTEM><MEAN_ELEMENT_THEORY>SGP4</MEAN_ELEMENT_THEORY></metadata><data><meanElements><EPOCH>2024-09-14T20:11:02.282496</EPOCH><MEAN_MOTION>14.56997233</MEAN_MOTION><ECCENTRICITY>.0002366</ECCENTRICITY><INCLINATION>46.9982</INCLINATION><RA_OF_ASC_NODE>54.8417</RA_OF_ASC_NODE><ARG_OF_PERICENTER>222.3760</ARG_OF_PERICENTER><MEAN_ANOMALY>137.6943</MEAN_ANOMALY></meanElements><tleParameters><EPHEMERIS_TYPE>0</EPHEMERIS_TYPE><CLASSIFICATION_TYPE>U</CLASSIFICATION_TYPE><NORAD_CAT_ID>41184</NORAD_CAT_ID><ELEMENT_SET_NO>999</ELEMENT_SET_NO><REV_AT_EPOCH>46549</REV_AT_EPOCH><BSTAR>.78213E-3</BSTAR><MEAN_MOTION_DOT>.3384E-4</MEAN_MOTION_DOT><MEAN_MOTION_DDOT>0</MEAN_MOTION_DDOT></tleParameters></data></segment></body></omm>
<omm id="CCSDS_OMM_VERS" version="2.0">
<header><CREATION_DATE/><ORIGINATOR/></header><body><segment><metadata><OBJECT_NAME>ORBCOMM FM113</OBJECT_NAME><OBJECT_ID>2015-081G</OBJECT_ID><CENTER_NAME>EARTH</CENTER_NAME><REF_FRAME>TEME</REF_FRAME><TIME_SYSTEM>UTC</TIME_SYSTEM><MEAN_ELEMENT_THEORY>SGP4</MEAN_ELEMENT_THEORY></metadata><data><meanElements><EPOCH>2024-09-15T12:05:34.596960</EPOCH><MEAN_MOTION>14.57025755</MEAN_MOTION><ECCENTRICITY>.0002256</ECCENTRICITY><INCLINATION>47.0006</INCLINATION><RA_OF_ASC_NODE>52.0032</RA_OF_ASC_NODE><ARG_OF_PERICENTER>238.7347</ARG_OF_PERICENTER><MEAN_ANOMALY>121.3317</MEAN_ANOMALY></meanElements><tleParameters><EPHEMERIS_TYPE>0</EPHEMERIS_TYPE><CLASSIFICATION_TYPE>U</CLASSIFICATION_TYPE><NORAD_CAT_ID>41185</NORAD_CAT_ID><ELEMENT_SET_NO>999</ELEMENT_SET_NO><REV_AT_EPOCH>46564</REV_AT_EPOCH><BSTAR>.86135E-3</BSTAR><MEAN_MOTION_DOT>.3746E-4</MEAN_MOTION_DOT><MEAN_MOTION_DDOT>0</MEAN_MOTION_DDOT></tleParameters></data></segment></body></omm>

</ndm>
